CCSDS_OMM_VERS = 2.0
CREATION_DATE  = 
ORIGINATOR     = 

OBJECT_NAME    = STARLINK-35925
OBJECT_ID      = 2025-283K
CENTER_NAME    = EARTH
REF_FRAME      = TEME
TIME_SYSTEM    = UTC
MEAN_ELEMENT_THEORY = SGP/SGP4

EPOCH          = 2025-12-30T22:00:03.000096
MEAN_MOTION    = 15.49369025
ECCENTRICITY   = .00014954
INCLINATION    = 53.1592
RA_OF_ASC_NODE = 344.2038
ARG_OF_PERICENTER = 90.4766
MEAN_ANOMALY   = 6.2758

EPHEMERIS_TYPE = 0
CLASSIFICATION_TYPE = U
NORAD_CAT_ID   = 66887
ELEMENT_SET_NO = 999
REV_AT_EPOCH   = 535
BSTAR          = -.21712805E-2
MEAN_MOTION_DOT = -.119633E-2
MEAN_MOTION_DDOT = 0

CCSDS_OMM_VERS = 2.0
CREATION_DATE  = 
ORIGINATOR     = 

OBJECT_NAME    = STARLINK-35919
OBJECT_ID      = 2025-283L
CENTER_NAME    = EARTH
REF_FRAME      = TEME
TIME_SYSTEM    = UTC
MEAN_ELEMENT_THEORY = SGP/SGP4

EPOCH          = 2025-12-30T22:00:03.000096
MEAN_MOTION    = 15.49363682
ECCENTRICITY   = .0001523
INCLINATION    = 53.1592
RA_OF_ASC_NODE = 344.1997
ARG_OF_PERICENTER = 95.6344
MEAN_ANOMALY   = 3.0271

EPHEMERIS_TYPE = 0
CLASSIFICATION_TYPE = U
NORAD_CAT_ID   = 66888
ELEMENT_SET_NO = 999
REV_AT_EPOCH   = 535
BSTAR          = -.14860302E-2
MEAN_MOTION_DOT = -.8239E-3
MEAN_MOTION_DDOT = 0

CCSDS_OMM_VERS = 2.0
CREATION_DATE  = 
ORIGINATOR     = 

OBJECT_NAME    = STARLINK-35852
OBJECT_ID      = 2025-283M
CENTER_NAME    = EARTH
REF_FRAME      = TEME
TIME_SYSTEM    = UTC
MEAN_ELEMENT_THEORY = SGP/SGP4

EPOCH          = 2025-12-30T22:00:03.000096
MEAN_MOTION    = 15.49351423
ECCENTRICITY   = .00019731
INCLINATION    = 53.1593
RA_OF_ASC_NODE = 344.1952
ARG_OF_PERICENTER = 91.2018
MEAN_ANOMALY   = 9.3851

EPHEMERIS_TYPE = 0
CLASSIFICATION_TYPE = U
NORAD_CAT_ID   = 66889
ELEMENT_SET_NO = 999
REV_AT_EPOCH   = 535
BSTAR          = -.16436732E-2
MEAN_MOTION_DOT = -.9095E-3
MEAN_MOTION_DDOT = 0

CCSDS_OMM_VERS = 2.0
CREATION_DATE  = 
ORIGINATOR     = 

OBJECT_NAME    = STARLINK-35885
OBJECT_ID      = 2025-283N
CENTER_NAME    = EARTH
REF_FRAME      = TEME
TIME_SYSTEM    = UTC
MEAN_ELEMENT_THEORY = SGP/SGP4

EPOCH          = 2025-12-30T22:00:03.000096
MEAN_MOTION    = 15.49311813
ECCENTRICITY   = .00017256
INCLINATION    = 53.1590
RA_OF_ASC_NODE = 344.1916
ARG_OF_PERICENTER = 94.7756
MEAN_ANOMALY   = 7.7383

EPHEMERIS_TYPE = 0
CLASSIFICATION_TYPE = U
NORAD_CAT_ID   = 66890
ELEMENT_SET_NO = 999
REV_AT_EPOCH   = 535
BSTAR          = .39013347E-4
MEAN_MOTION_DOT = .1722E-4
MEAN_MOTION_DDOT = 0

CCSDS_OMM_VERS = 2.0
CREATION_DATE  = 
ORIGINATOR     = 

OBJECT_NAME    = STARLINK-35855
OBJECT_ID      = 2025-283P
CENTER_NAME    = EARTH
REF_FRAME      = TEME
TIME_SYSTEM    = UTC
MEAN_ELEMENT_THEORY = SGP/SGP4

EPOCH          = 2025-12-30T22:00:03.000096
MEAN_MOTION    = 15.49351218
ECCENTRICITY   = .00012407
INCLINATION    = 53.1593
RA_OF_ASC_NODE = 344.1876
ARG_OF_PERICENTER = 89.8987
MEAN_ANOMALY   = 14.5306

EPHEMERIS_TYPE = 0
CLASSIFICATION_TYPE = U
NORAD_CAT_ID   = 66891
ELEMENT_SET_NO = 999
REV_AT_EPOCH   = 535
BSTAR          = -.17790535E-2
MEAN_MOTION_DOT = -.98304E-3
MEAN_MOTION_DDOT = 0

CCSDS_OMM_VERS = 2.0
CREATION_DATE  = 
ORIGINATOR     = 

OBJECT_NAME    = STARLINK-35883
OBJECT_ID      = 2025-283Q
CENTER_NAME    = EARTH
REF_FRAME      = TEME
TIME_SYSTEM    = UTC
MEAN_ELEMENT_THEORY = SGP/SGP4

EPOCH          = 2025-12-30T22:00:03.000096
MEAN_MOTION    = 15.49360700
ECCENTRICITY   = .0001228
INCLINATION    = 53.1593
RA_OF_ASC_NODE = 344.1832
ARG_OF_PERICENTER = 95.9080
MEAN_ANOMALY   = 10.4295

EPHEMERIS_TYPE = 0
CLASSIFICATION_TYPE = U
NORAD_CAT_ID   = 66892
ELEMENT_SET_NO = 999
REV_AT_EPOCH   = 529
BSTAR          = -.19494607E-2
MEAN_MOTION_DOT = -.107586E-2
MEAN_MOTION_DDOT = 0

CCSDS_OMM_VERS = 2.0
CREATION_DATE  = 
ORIGINATOR     = 

OBJECT_NAME    = STARLINK-36033
OBJECT_ID      = 2025-283R
CENTER_NAME    = EARTH
REF_FRAME      = TEME
TIME_SYSTEM    = UTC
MEAN_ELEMENT_THEORY = SGP/SGP4

EPOCH          = 2025-12-30T22:00:03.000096
MEAN_MOTION    = 15.46144276
ECCENTRICITY   = .00013069
INCLINATION    = 53.1595
RA_OF_ASC_NODE = 344.1867
ARG_OF_PERICENTER = 86.1379
MEAN_ANOMALY   = 18.1449

EPHEMERIS_TYPE = 0
CLASSIFICATION_TYPE = U
NORAD_CAT_ID   = 66893
ELEMENT_SET_NO = 999
REV_AT_EPOCH   = 535
BSTAR          = -.45958443E-1
MEAN_MOTION_DOT = -.2038404E-1
MEAN_MOTION_DDOT = 0

CCSDS_OMM_VERS = 2.0
CREATION_DATE  = 
ORIGINATOR     = 

OBJECT_NAME    = STARLINK-35718
OBJECT_ID      = 2025-283S
CENTER_NAME    = EARTH
REF_FRAME      = TEME
TIME_SYSTEM    = UTC
MEAN_ELEMENT_THEORY = SGP/SGP4

EPOCH          = 2025-12-30T22:00:03.000096
MEAN_MOTION    = 15.49371552
ECCENTRICITY   = .00011876
INCLINATION    = 53.1592
RA_OF_ASC_NODE = 344.1759
ARG_OF_PERICENTER = 94.2352
MEAN_ANOMALY   = 15.9326

EPHEMERIS_TYPE = 0
CLASSIFICATION_TYPE = U
NORAD_CAT_ID   = 66894
ELEMENT_SET_NO = 999
REV_AT_EPOCH   = 535
BSTAR          = -.22607339E-2
MEAN_MOTION_DOT = -.124474E-2
MEAN_MOTION_DDOT = 0

CCSDS_OMM_VERS = 2.0
CREATION_DATE  = 
ORIGINATOR     = 

OBJECT_NAME    = STARLINK-35971
OBJECT_ID      = 2025-283T
CENTER_NAME    = EARTH
REF_FRAME      = TEME
TIME_SYSTEM    = UTC
MEAN_ELEMENT_THEORY = SGP/SGP4

EPOCH          = 2025-12-30T22:00:03.000096
MEAN_MOTION    = 15.49554730
ECCENTRICITY   = .00014814
INCLINATION    = 53.1593
RA_OF_ASC_NODE = 344.1660
ARG_OF_PERICENTER = 103.5840
MEAN_ANOMALY   = 10.4122

EPHEMERIS_TYPE = 0
CLASSIFICATION_TYPE = U
NORAD_CAT_ID   = 66895
ELEMENT_SET_NO = 999
REV_AT_EPOCH   = 535
BSTAR          = -.39900593E-1
MEAN_MOTION_DOT = -.199991E-1
MEAN_MOTION_DDOT = 0

CCSDS_OMM_VERS = 2.0
CREATION_DATE  = 
ORIGINATOR     = 

OBJECT_NAME    = STARLINK-35791
OBJECT_ID      = 2025-283U
CENTER_NAME    = EARTH
REF_FRAME      = TEME
TIME_SYSTEM    = UTC
MEAN_ELEMENT_THEORY = SGP/SGP4

EPOCH          = 2025-12-30T22:00:03.000096
MEAN_MOTION    = 15.49309532
ECCENTRICITY   = .00012448
INCLINATION    = 53.1591
RA_OF_ASC_NODE = 344.1701
ARG_OF_PERICENTER = 92.9101
MEAN_ANOMALY   = 19.1869

EPHEMERIS_TYPE = 0
CLASSIFICATION_TYPE = U
NORAD_CAT_ID   = 66896
ELEMENT_SET_NO = 999
REV_AT_EPOCH   = 535
BSTAR          = .11464625E-3
MEAN_MOTION_DOT = .5933E-4
MEAN_MOTION_DDOT = 0

CCSDS_OMM_VERS = 2.0
CREATION_DATE  = 
ORIGINATOR     = 

OBJECT_NAME    = STARLINK-36079
OBJECT_ID      = 2025-283V
CENTER_NAME    = EARTH
REF_FRAME      = TEME
TIME_SYSTEM    = UTC
MEAN_ELEMENT_THEORY = SGP/SGP4

EPOCH          = 2025-12-30T22:00:03.000096
MEAN_MOTION    = 15.49615503
ECCENTRICITY   = .00016668
INCLINATION    = 53.1591
RA_OF_ASC_NODE = 344.1627
ARG_OF_PERICENTER = 95.8753
MEAN_ANOMALY   = 20.0241

EPHEMERIS_TYPE = 0
CLASSIFICATION_TYPE = U
NORAD_CAT_ID   = 66897
ELEMENT_SET_NO = 999
REV_AT_EPOCH   = 535
BSTAR          = -.39656641E-1
MEAN_MOTION_DOT = -.1992935E-1
MEAN_MOTION_DDOT = 0

CCSDS_OMM_VERS = 2.0
CREATION_DATE  = 
ORIGINATOR     = 

OBJECT_NAME    = STARLINK-36065
OBJECT_ID      = 2025-283W
CENTER_NAME    = EARTH
REF_FRAME      = TEME
TIME_SYSTEM    = UTC
MEAN_ELEMENT_THEORY = SGP/SGP4

EPOCH          = 2025-12-30T22:00:03.000096
MEAN_MOTION    = 15.49305767
ECCENTRICITY   = .00012778
INCLINATION    = 53.1592
RA_OF_ASC_NODE = 344.1583
ARG_OF_PERICENTER = 87.4740
MEAN_ANOMALY   = 30.3769

EPHEMERIS_TYPE = 0
CLASSIFICATION_TYPE = U
NORAD_CAT_ID   = 66898
ELEMENT_SET_NO = 999
REV_AT_EPOCH   = 535
BSTAR          = .35965769E-3
MEAN_MOTION_DOT = .19602E-3
MEAN_MOTION_DDOT = 0

