STARLINK-35925          
1 66887U 25283K   25364.91670139 -.00119633  00000+0 -21713-2 0  9991
2 66887  53.1592 344.2038 0001495  90.4766   6.2758 15.49369025  5352
STARLINK-35919          
1 66888U 25283L   25364.91670139 -.00082390  00000+0 -14860-2 0  9996
2 66888  53.1592 344.1997 0001523  95.6344   3.0271 15.49363682  5355
STARLINK-35852          
1 66889U 25283M   25364.91670139 -.00090950  00000+0 -16437-2 0  9990
2 66889  53.1593 344.1952 0001973  91.2018   9.3851 15.49351423  5350
STARLINK-35885          
1 66890U 25283N   25364.91670139  .00001722  00000+0  39013-4 0  9996
2 66890  53.1590 344.1916 0001725  94.7756   7.7383 15.49311813  5352
STARLINK-35855          
1 66891U 25283P   25364.91670139 -.00098304  00000+0 -17791-2 0  9998
2 66891  53.1593 344.1876 0001240  89.8987  14.5306 15.49351218  5358
STARLINK-35883          
1 66892U 25283Q   25364.91670139 -.00107586  00000+0 -19495-2 0  9995
2 66892  53.1593 344.1832 0001228  95.9080  10.4295 15.49360700  5290
STARLINK-36033          
1 66893U 25283R   25364.91670139 -.02038404  00000+0 -45958-1 0  9992
2 66893  53.1595 344.1867 0001306  86.1379  18.1449 15.46144276  5359
STARLINK-35718          
1 66894U 25283S   25364.91670139 -.00124474  00000+0 -22607-2 0  9991
2 66894  53.1592 344.1759 0001187  94.2352  15.9326 15.49371552  5356
STARLINK-35971          
1 66895U 25283T   25364.91670139 -.01999910  00000+0 -39901-1 0  9992
2 66895  53.1593 344.1660 0001481 103.5840  10.4122 15.49554730  5357
STARLINK-35791          
1 66896U 25283U   25364.91670139  .00005933  00000+0  11465-3 0  9990
2 66896  53.1591 344.1701 0001244  92.9101  19.1869 15.49309532  5352
STARLINK-36079          
1 66897U 25283V   25364.91670139 -.01992935  00000+0 -39657-1 0  9992
2 66897  53.1591 344.1627 0001666  95.8753  20.0241 15.49615503  5356
STARLINK-36065          
1 66898U 25283W   25364.91670139  .00019602  00000+0  35966-3 0  9992
2 66898  53.1592 344.1583 0001277  87.4740  30.3769 15.49305767  5357
